ONEWEB-0159             
1 48062U 21025W   24237.58728530  .00000394  00000+0  10442-2 0  9994
2 48062  87.8867  91.8757 0001954  83.4168 276.7183 13.13469838166757
ONEWEB-0164             
1 48063U 21025X   24237.56981705  .00000005  00000+0 -20853-4 0  9997
2 48063  87.8867  91.8894 0001638  82.7412 277.3903 13.13471137166733
ONEWEB-0167             
1 48064U 21025Y   24237.52299749  .00000164  00000+0  41327-3 0  9997
2 48064  87.8870  91.9117 0001931  86.7143 273.4207 13.13470549166716
ONEWEB-0166             
1 48065U 21025Z   24237.62059519 -.00000270  00000+0 -77390-3 0  9997
2 48065  87.8865  91.8725 0001904  78.8223 281.3120 13.13468849166808
ONEWEB-0151             
1 48066U 21025AA  24237.62218691 -.00000320  00000+0 -91191-3 0  9997
2 48066  87.8868  91.8874 0001601  84.7824 275.3487 13.13469643166749
ONEWEB-0170             
1 48067U 21025AB  24237.55393770 -.00000468  00000+0 -13157-2 0  9990
2 48067  87.8866  91.9038 0001120  84.8280 275.2977 13.13469866166698
ONEWEB-0168             
1 48068U 21025AC  24237.61583702 -.00000141  00000+0 -42213-3 0  9998
2 48068  87.8871  91.8633 0001789  83.4384 276.6948 13.13467979166715
